[{"OBJECT_NAME":"STARLINK-30952","OBJECT_ID":"2023-180D","EPOCH":"2026-03-09T22:00:01.999584","MEAN_MOTION":15.27552863,"ECCENTRICITY":0.00014558,"INCLINATION":43.0047,"RA_OF_ASC_NODE":51.3804,"ARG_OF_PERICENTER":267.9266,"MEAN_ANOMALY":301.2059,"EPHEMERIS_TYPE":0,"CLASSIFICATION_TYPE":"U","NORAD_CAT_ID":58405,"ELEMENT_SET_NO":999,"REV_AT_EPOCH":573,"BSTAR":0.0015252634,"MEAN_MOTION_DOT":0.00041914,"MEAN_MOTION_DDOT":0},{"OBJECT_NAME":"OBJECT D","OBJECT_ID":"2024-174D","EPOCH":"2026-03-10T00:15:10.483200","MEAN_MOTION":15.28039787,"ECCENTRICITY":0.00110644,"INCLINATION":97.4441,"RA_OF_ASC_NODE":80.4677,"ARG_OF_PERICENTER":212.9968,"MEAN_ANOMALY":147.0582,"EPHEMERIS_TYPE":0,"CLASSIFICATION_TYPE":"U","NORAD_CAT_ID":61241,"ELEMENT_SET_NO":999,"REV_AT_EPOCH":8076,"BSTAR":0.00036340099,"MEAN_MOTION_DOT":9.884e-5,"MEAN_MOTION_DDOT":0}]
